QIANFAN-1               
1 60379U 24140A   25361.50554199  .00000126  00000+0  17688-3 0  9992
2 60379  88.9773 297.7529 0017328 166.1440 194.0190 13.50980851 69349
QIANFAN-2               
1 60380U 24140B   25361.46042495  .00000145  00000+0  20602-3 0  9991
2 60380  88.9759 297.5949 0013515 137.1153 223.1055 13.50984617 69395
QIANFAN-3               
1 60381U 24140C   25361.46858567  .00000131  00000+0  18454-3 0  9994
2 60381  88.9752 297.7256 0014232 149.6847 210.5130 13.50985119 69300
QIANFAN-4               
1 60382U 24140D   25361.44380897  .00000137  00000+0  19399-3 0  9994
2 60382  88.9777 297.6295 0013668 139.7099 220.5067 13.50980761 69422
QIANFAN-5               
1 60383U 24140E   25361.49330017  .00000141  00000+0  19961-3 0  9999
2 60383  88.9752 297.7484 0015143 161.3325 198.8385 13.50982829 69292
QIANFAN-6               
1 60384U 24140F   25361.43982233  .00000129  00000+0  18116-3 0  9994
2 60384  88.9778 297.5042 0013605 145.4765 214.7272 13.50983079 69483
QIANFAN-7               
1 60385U 24140G   25361.46346502  .00000879  00000+0  35050-3 0  9999
2 60385  88.9793 291.9931 0015496   1.0948 359.0277 14.27671033 72498
QIANFAN-8               
1 60386U 24140H   25361.44811084  .00000143  00000+0  20193-3 0  9996
2 60386  88.9780 297.7410 0016968 149.2042 211.0108 13.50980987 69331
